STARLINK-6153           
1 56384U 23061L   25063.25142934 -.00000228  00000+0 -18087-5 0  9996
2 56384  43.0043  50.1025 0001692 270.7148  89.3501 15.02541238101034
STARLINK-6173           
1 56385U 23061M   25063.32122607  .00001463  00000+0  12332-3 0  9995
2 56385  43.0033  49.7679 0001128 270.8885  89.1828 15.02539791101048
STARLINK-5836           
1 56386U 23061N   25063.31123810  .00000413  00000+0  45628-4 0  9991
2 56386  43.0038  49.6910 0001212 268.4787  91.5917 15.02537202101040
STARLINK-6178           
1 56387U 23061P   25063.36775203 -.00001690  00000+0 -11010-3 0  9993
2 56387  43.0019  49.2592 0000881 251.3741 108.7006 15.02521381101056
STARLINK-6176           
1 56388U 23061Q   25063.46305405  .00001433  00000+0  12365-3 0  9995
2 56388  43.0038  49.1019 0001077 264.0175  96.0545 15.01729712101066
STARLINK-6145           
1 56389U 23061R   25063.24808961  .00000180  00000+0  28383-4 0  9993
2 56389  43.0033  50.0776 0001282 267.6811  92.3884 15.02535213101031
STARLINK-6300           
1 56390U 23061S   25063.27572300  .01095098  78191-3  86045-3 0  9994
2 56390  42.9925 349.1903 0008011 223.3960 274.1317 16.13869312102020
STARLINK-6298           
1 56391U 23061T   25063.24143582  .00000556  00000+0  56201-4 0  9994
2 56391  43.0035  50.0261 0001042 270.9378  89.1345 15.02533657101030
STARLINK-6301           
1 56392U 23061U   25062.64572935  .00000430  00000+0  46897-4 0  9997
2 56392  43.0033  41.1674 0001012 272.7772  87.2955 15.02536107101087
STARLINK-6303           
1 56393U 23061V   25063.37105997  .00002797  00000+0  22202-3 0  9990
2 56393  43.0030  49.2782 0001778 274.7407  85.3233 15.02539194101054
STARLINK-6305           
1 56394U 23061W   25063.36588593  .00000477  00000+0  50372-4 0  9990
2 56394  43.0048  37.1101 0001225 266.5050  93.5652 15.02533637101192
STARLINK-6273           
1 56395U 23061X   25063.30273526  .00001310  00000+0  11202-3 0  9997
2 56395  43.0038  37.4959 0001224 270.2666  89.8036 15.02541344101895
STARLINK-6302           
1 56396U 23061Y   25063.29386005  .00001146  00000+0  99872-4 0  9990
2 56396  43.0027  37.4296 0001050 265.9413  94.1310 15.02537244 96314
STARLINK-6271           
1 56397U 23061Z   25063.30495186  .00000928  00000+0  83744-4 0  9992
2 56397  43.0030  37.5139 0001133 267.8528  92.2185 15.02545381101188
STARLINK-6288           
1 56398U 23061AA  25063.35700619  .00000701  00000+0  66980-4 0  9990
2 56398  43.0028  37.0435 0001245 271.0414  89.0286 15.02536090101199
STARLINK-6277           
1 56399U 23061AB  25063.29607773  .00000938  00000+0  84498-4 0  9997
2 56399  43.0036  37.4463 0001157 274.8702  85.2009 15.02540733101186
STARLINK-6267           
1 56400U 23061AC  25063.35146495 -.00000131  00000+0  53464-5 0  9992
2 56400  43.0022  37.0030 0001226 263.9625  96.1077 15.02536211101193
STARLINK-6256           
1 56401U 23061AD  25063.29300553  .00000655  00000+0  63555-4 0  9994
2 56401  43.0037  24.4151 0001045 267.2173  92.8550 15.02537979101335
STARLINK-6284           
1 56403U 23061AF  25063.42015185  .00000723  00000+0  68559-4 0  9990
2 56403  43.0045  36.6571 0001274 274.4956  85.5741 15.02536259101207
STARLINK-6287           
1 56404U 23061AG  25063.01018637  .00000922  00000+0  83326-4 0  9991
2 56404  43.0041  38.7398 0001311 265.4389  94.6304 15.02533749101146
STARLINK-6285           
1 56405U 23061AH  25063.34812688  .00000957  00000+0  85883-4 0  9994
2 56405  43.0046  36.9764 0001187 273.7742  86.2965 15.02534706101194
STARLINK-6283           
1 56406U 23061AJ  25062.20357634  .00001197  00000+0  10365-3 0  9993
2 56406  43.0034  43.0053 0001004 274.3690  85.7038 15.02535550101024
STARLINK-6282           
1 56407U 23061AK  25062.34763373  .00000287  00000+0  36316-4 0  9994
2 56407  43.0031  42.3674 0001067 272.1072  87.9649 15.02532265101046
STARLINK-6289           
1 56408U 23061AL  25063.32592834  .00000597  00000+0  59280-4 0  9995
2 56408  43.0040  36.7916 0000850 267.7563  92.3182 15.02536405101195
STARLINK-6241           
1 56409U 23061AM  25062.27560063  .00000384  00000+0  43489-4 0  9996
2 56409  43.0023  42.6862 0000983 266.5768  93.4962 15.02540003101326
STARLINK-6281           
1 56410U 23061AN  25062.99243113  .00000070  00000+0  20228-4 0  9999
2 56410  43.0039  38.6035 0000882 269.6510  90.4231 15.02536418101140
STARLINK-6279           
1 56411U 23061AP  25063.40350490  .00001315  00000+0  11237-3 0  9996
2 56411  43.0039  36.5276 0001080 258.2719 101.8003 15.02540004101208
STARLINK-6278           
1 56412U 23061AQ  25063.31926868  .00001462  00000+0  12324-3 0  9996
2 56412  43.0045  36.7537 0001202 271.5738  88.4967 15.02538089101190
STARLINK-6258           
1 56413U 23061AR  25063.32814924  .00000197  00000+0  29646-4 0  9997
2 56413  43.0034  36.8232 0001194 267.4899  92.5806 15.02534453101193
STARLINK-5136           
1 56414U 23061AS  25063.38130055  .00001345  00000+0  11463-3 0  9993
2 56414  43.0044  36.3598 0001298 263.0465  97.0229 15.02543377101207
STARLINK-6268           
1 56415U 23061AT  25063.32261254  .00000950  00000+0  85414-4 0  9993
2 56415  43.0041  36.7799 0000782 261.3636  98.7118 15.02530756101190
STARLINK-6260           
1 56416U 23061AU  25063.29855582  .00001265  00000+0  10866-3 0  9991
2 56416  43.0039  24.4540 0001133 265.8963  94.1750 15.02537474101331
STARLINK-6261           
1 56417U 23061AV  25063.38241411  .00006332  00000+0  48330-3 0  9999
2 56417  43.0034  36.3688 0001338 270.3908  89.6781 15.02543031101204
STARLINK-5356           
1 56418U 23061AW  25063.21875194  .00000976  00000+0  87272-4 0  9990
2 56418  43.0044  24.7154 0000976 274.3232  85.7499 15.02545160101327
STARLINK-5350           
1 56419U 23061AX  25063.24612891 -.00000062  00000+0  10449-4 0  9996
2 56419  43.0043  37.0665 0001216 265.2743  94.7960 15.02539735101183
STARLINK-6272           
1 56420U 23061AY  25063.21542838  .00000181  00000+0  28493-4 0  9997
2 56420  43.0040  24.6920 0001151 265.2342  94.8368 15.02535048101323
STARLINK-6270           
1 56421U 23061AZ  25063.36836248 -.00000111  00000+0  68616-5 0  9991
2 56421  43.0043  24.1135 0001008 255.9295 104.1436 15.02539380101340
STARLINK-6236           
1 56422U 23061BA  25063.20876733  .00001065  00000+0  93864-4 0  9998
2 56422  43.0036  24.6415 0001216 268.9668  91.1035 15.02537749101323
STARLINK-6239           
1 56423U 23061BB  25062.94618549  .00004255  00000+0  32993-3 0  9997
2 56423  43.0039  26.1107 0001124 272.8076  87.2637 15.02527756101283
STARLINK-6242           
1 56424U 23061BC  25062.93619044  .00001389  00000+0  11783-3 0  9997
2 56424  43.0039  26.0341 0001113 267.2635  92.8080 15.02544810101284
STARLINK-6224           
1 56425U 23061BD  25062.93952546  .00000865  00000+0  79057-4 0  9992
2 56425  43.0039  26.0603 0000897 272.3419  87.7321 15.02540359101286
STARLINK-5352           
1 56426U 23061BE  25062.98281295  .00000777  00000+0  72605-4 0  9998
2 56426  43.0042  26.3682 0001260 273.3158  86.7540 15.02534293101289
STARLINK-5724           
1 56427U 23061BF  25063.23873374  .00000142  00000+0  25578-4 0  9996
2 56427  43.0033  24.8533 0001040 264.5694  95.5030 15.02536261101325
STARLINK-6238           
1 56428U 23061BG  25062.86305846  .00000353  00000+0  41221-4 0  9996
2 56428  43.0033  26.3433 0001112 269.6068  90.4647 15.02539225101278
STARLINK-6264           
1 56429U 23061BH  25063.32507394  .00000554  00000+0  56096-4 0  9990
2 56429  43.0056  23.7885 0001445 271.3787  88.6890 15.02538122101345
STARLINK-5990           
1 56448U 23064A   25063.23419558  .00001378  00000+0  12322-3 0  9996
2 56448  70.0004 358.5780 0002691 260.5834  99.5021 14.98333756 99757
STARLINK-5993           
1 56449U 23064B   25063.18816948 -.00000905  00000+0 -68086-4 0  9991
2 56449  70.0036 358.8164 0002452 281.9014  78.1870 14.98311066 99748
STARLINK-5970           
1 56450U 23064C   25063.16326295  .00000787  00000+0  73705-4 0  9992
2 56450  70.0008 358.7307 0002801 270.5441  89.5397 14.98333013 99749
STARLINK-5985           
1 56451U 23064D   25063.18396345  .00001160  00000+0  10497-3 0  9992
2 56451  70.0012 358.8027 0002917 272.2735  87.8090 14.98337408 99741
STARLINK-5986           
1 56452U 23064E   25063.24655079  .00001737  00000+0  15329-3 0  9991
2 56452  70.0011 358.6209 0002965 268.4920  91.5900 14.98337947 99758
STARLINK-5935           
1 56453U 23064F   25063.24236727 -.00007842  00000+0 -64987-3 0  9996
2 56453  70.0017 358.6072 0002902 273.5845  86.4983 14.98349499 99756
STARLINK-5959           
1 56454U 23064G   25063.22150499  .00001475  00000+0  13134-3 0  9998
2 56454  70.0007 358.5306 0002713 266.7522  93.3327 14.98338346 99759
STARLINK-5987           
1 56455U 23064H   25062.88423247 -.00081939  00000+0 -70641-2 0  9994
2 56455  70.0007 359.3615 0003593 213.7340 146.3590 14.97642348100066
STARLINK-5995           
1 56456U 23064J   25063.03105491 -.00196441  00000+0 -17611-1 0  9993
2 56456  70.0005 359.0711 0008072 124.1577 236.0348 14.96752380 99728
STARLINK-5994           
1 56457U 23064K   25063.22568266  .00002870  00000+0  24818-3 0  9997
2 56457  70.0010 358.5446 0002876 270.2367  89.8462 14.98342302 99755
STARLINK-6050           
1 56458U 23064L   25063.23402861  .00001014  00000+0  92749-4 0  9995
2 56458  70.0005 358.5751 0002941 268.2731  91.8091 14.98335059 99756
STARLINK-6048           
1 56459U 23064M   25063.19995329  .00123364  00000+0  99271-2 0  9995
2 56459  70.0007 358.4541 0006053 285.1293  74.9196 14.99240342 99753
STARLINK-6047           
1 56460U 23064N   25063.21315723  .00000101  00000+0  16265-4 0  9991
2 56460  70.0008 358.5010 0002993 270.9140  89.1676 14.98335080 99754
STARLINK-6037           
1 56461U 23064P   25063.19646004  .00000923  00000+0  85142-4 0  9990
2 56461  70.0017 358.4425 0002759 264.0367  96.0478 14.98335377 99755
